[Satellite]
VERSION=1.1
NAME=GEO-IK 2
NICKNAME=GEO-IK 2
TLE1=1 37362U 11005A   11060.08078562  .00036147  00000-0  71237-3 0   830
TLE2=2 37362  99.4604  73.3885 0538519  26.9108 335.8847 14.62928044  4020
